[
    {
        "Altitude(m)": 555737.2356910635,
        "Argument of Periapsis(deg)": 0.033114955553567506,
        "Eccentricity": 0.0,
        "Inclination(deg)": 53.0,
        "Latitude(deg)": -8.489056371187093,
        "Longitude(deg)": 87.43470042784197,
        "Mean Anomaly(deg)": 190.45806433788795,
        "RAAN(deg)": 4.950716842640084,
        "Satellite Name": "Starlink Shell 1 30",
        "Satellite Number": 30,
        "Semi-Major Axis(m)": 6931778.249405717,
        "Time(s)": 950
    },
    {
        "Altitude(m)": 555848.8412494573,
        "Argument of Periapsis(deg)": 0.03346353403307874,
        "Eccentricity": 0.0,
        "Inclination(deg)": 53.0,
        "Latitude(deg)": -8.989328043780217,
        "Longitude(deg)": 87.77875532172038,
        "Mean Anomaly(deg)": 191.08489554144467,
        "RAAN(deg)": 4.950198072562611,
        "Satellite Name": "Starlink Shell 1 30",
        "Satellite Number": 30,
        "Semi-Major Axis(m)": 6931778.249405717,
        "Time(s)": 960
    },
    {
        "Altitude(m)": 555962.8873628577,
        "Argument of Periapsis(deg)": 0.03381211251258998,
        "Eccentricity": 0.0,
        "Inclination(deg)": 53.0,
        "Latitude(deg)": -9.489170045999616,
        "Longitude(deg)": 88.1238581009566,
        "Mean Anomaly(deg)": 191.71172674500136,
        "RAAN(deg)": 4.949679302485139,
        "Satellite Name": "Starlink Shell 1 30",
        "Satellite Number": 30,
        "Semi-Major Axis(m)": 6931778.249405717,
        "Time(s)": 970
    },
    {
        "Altitude(m)": 556079.3420290372,
        "Argument of Periapsis(deg)": 0.034160690992101214,
        "Eccentricity": 0.0,
        "Inclination(deg)": 53.0,
        "Latitude(deg)": -9.988557530526347,
        "Longitude(deg)": 88.47007047570004,
        "Mean Anomaly(deg)": 192.33855794855808,
        "RAAN(deg)": 4.9491605324076655,
        "Satellite Name": "Starlink Shell 1 30",
        "Satellite Number": 30,
        "Semi-Major Axis(m)": 6931778.249405717,
        "Time(s)": 980
    },
    {
        "Altitude(m)": 556198.1720324148,
        "Argument of Periapsis(deg)": 0.034509269471612446,
        "Eccentricity": 0.0,
        "Inclination(deg)": 53.0,
        "Latitude(deg)": -10.487465421027174,
        "Longitude(deg)": 88.8174551377575,
        "Mean Anomaly(deg)": 192.96538915211482,
        "RAAN(deg)": 4.948641762330193,
        "Satellite Name": "Starlink Shell 1 30",
        "Satellite Number": 30,
        "Semi-Major Axis(m)": 6931778.249405717,
        "Time(s)": 990
    }
]